{
  "norad_id": 61721,
  "name": "STARLINK-32469",
  "history": [
    {
      "epoch": "2026-03-28T04:48:10.291104Z",
      "apogee_km": 476.2220770601807,
      "perigee_km": 474.20527302353,
      "latitude_deg": 5.8959879857835653e-05,
      "longitude_deg": 117.4747822754516,
      "height_km": 476.1460650505081,
      "semi_major_axis_km": 6853.3506750418555,
      "eccentricity": 0.00014714,
      "inclination_deg": 53.162,
      "raan_deg": 15.1416,
      "arg_perigee_deg": 91.9542,
      "mean_anomaly_deg": 268.1628,
      "mean_motion_rev_day": 15.30200467
    },
    {
      "epoch": "2026-03-29T01:10:51.741408Z",
      "apogee_km": 476.39245141418905,
      "perigee_km": 474.03763965134385,
      "latitude_deg": -2.056156608829083e-05,
      "longitude_deg": 167.02241100528718,
      "height_km": 476.1856036878317,
      "semi_major_axis_km": 6853.352045532766,
      "eccentricity": 0.0001718,
      "inclination_deg": 53.1619,
      "raan_deg": 11.1989,
      "arg_perigee_deg": 93.5498,
      "mean_anomaly_deg": 266.5699,
      "mean_motion_rev_day": 15.30200008
    },
    {
      "epoch": "2026-03-30T03:49:46.568928Z",
      "apogee_km": 476.1056020818687,
      "perigee_km": 474.408701689862,
      "latitude_deg": -5.5012765727209146e-05,
      "longitude_deg": 121.04202040526022,
      "height_km": 476.06014159583566,
      "semi_major_axis_km": 6853.3941518858655,
      "eccentricity": 0.0001238,
      "inclination_deg": 53.1622,
      "raan_deg": 6.0414,
      "arg_perigee_deg": 83.5453,
      "mean_anomaly_deg": 276.5688,
      "mean_motion_rev_day": 15.30185906
    },
    {
      "epoch": "2026-03-30T11:40:02.847648Z",
      "apogee_km": 476.1054455908552,
      "perigee_km": 474.39648476785806,
      "latitude_deg": -2.244396521745428e-05,
      "longitude_deg": 1.635727771249371,
      "height_km": 476.0908734297211,
      "semi_major_axis_km": 6853.387965179356,
      "eccentricity": 0.00012468,
      "inclination_deg": 53.1632,
      "raan_deg": 4.5248,
      "arg_perigee_deg": 86.0712,
      "mean_anomaly_deg": 274.0431,
      "mean_motion_rev_day": 15.30187978
    },
    {
      "epoch": "2026-03-30T17:56:15.363456Z",
      "apogee_km": 476.0478330742253,
      "perigee_km": 474.4574354756942,
      "latitude_deg": -4.862922821299716e-05,
      "longitude_deg": -93.88714626812089,
      "height_km": 476.1196020034417,
      "semi_major_axis_km": 6853.3896342749595,
      "eccentricity": 0.00011603,
      "inclination_deg": 53.1632,
      "raan_deg": 3.3116,
      "arg_perigee_deg": 87.7222,
      "mean_anomaly_deg": 272.3911,
      "mean_motion_rev_day": 15.30187419
    },
    {
      "epoch": "2026-03-31T11:10:50.856960Z",
      "apogee_km": 476.3842127562348,
      "perigee_km": 474.13218709353896,
      "latitude_deg": -2.558461458894719e-05,
      "longitude_deg": 3.4203294844369947,
      "height_km": 476.06236333321925,
      "semi_major_axis_km": 6853.395199924887,
      "eccentricity": 0.0001643,
      "inclination_deg": 53.1603,
      "raan_deg": 359.9751,
      "arg_perigee_deg": 85.2404,
      "mean_anomaly_deg": 274.8784,
      "mean_motion_rev_day": 15.30185555
    },
    {
      "epoch": "2026-04-01T10:41:38.416992Z",
      "apogee_km": 476.1344160552817,
      "perigee_km": 474.3278682130158,
      "latitude_deg": 1.6922907748037397e-05,
      "longitude_deg": 5.207542385098923,
      "height_km": 475.9850327920934,
      "semi_major_axis_km": 6853.368142134149,
      "eccentricity": 0.0001318,
      "inclination_deg": 53.1613,
      "raan_deg": 355.4261,
      "arg_perigee_deg": 80.8088,
      "mean_anomaly_deg": 279.3062,
      "mean_motion_rev_day": 15.30194617
    }
  ]
}